{
  "type": "FeatureCollection",
  "features": [
    {
      "type": "Feature",
      "properties": {
        "norad_id": 28899,
        "name": "INMARSAT 4-F2 (SOUTHPAN/PRN 122)",
        "group": "gnss",
        "lat": -4.606912797372746,
        "lon": -28.13028825825657,
        "alt_km": 35783.56228934422,
        "timestamp": "2025-12-06T07:31:40.478982+00:00",
        "meta_object_name": "INMARSAT 4-F2 (SOUTHPAN/PRN 122)",
        "meta_object_id": "2005-044A",
        "meta_epoch": "2025-12-04T14:24:30.690144",
        "meta_mean_motion": 1.0027192,
        "meta_eccentricity": 0.00034581,
        "meta_inclination": 4.841,
        "meta_ra_of_asc_node": 43.6637,
        "meta_arg_of_pericenter": 210.8827,
        "meta_mean_anomaly": 178.752,
        "meta_ephemeris_type": 0,
        "meta_classification_type": "U",
        "meta_norad_cat_id": 28899,
        "meta_element_set_no": 999,
        "meta_rev_at_epoch": 7357,
        "meta_bstar": 0,
        "meta_mean_motion_dot": -2.49e-06,
        "meta_mean_motion_ddot": 0,
        "tle_line1": "1 28899U 05044A   25338.60035521 -.00000249  00000+0  00000+0 0  9996",
        "tle_line2": "2 28899   4.8410  43.6637 0003458 210.8827 178.7520  1.00271920 73576"
      },
      "geometry": {
        "type": "Point",
        "coordinates": [
          -28.13028825825657,
          -4.606912797372746
        ]
      }
    },
    {
      "type": "Feature",
      "properties": {
        "norad_id": 29486,
        "name": "GPS BIIRM-2 (PRN 31)",
        "group": "gnss",
        "lat": -12.431987684692013,
        "lon": -12.017158860018325,
        "alt_km": 20412.842929634156,
        "timestamp": "2025-12-06T07:31:40.478995+00:00",
        "meta_object_name": "GPS BIIRM-2 (PRN 31)",
        "meta_object_id": "2006-042A",
        "meta_epoch": "2025-12-04T13:13:00.041088",
        "meta_mean_motion": 2.00554363,
        "meta_eccentricity": 0.0107357,
        "meta_inclination": 54.6929,
        "meta_ra_of_asc_node": 159.0658,
        "meta_arg_of_pericenter": 51.7626,
        "meta_mean_anomaly": 309.8697,
        "meta_ephemeris_type": 0,
        "meta_classification_type": "U",
        "meta_norad_cat_id": 29486,
        "meta_element_set_no": 999,
        "meta_rev_at_epoch": 14049,
        "meta_bstar": 0,
        "meta_mean_motion_dot": 8.8e-07,
        "meta_mean_motion_ddot": 0,
        "tle_line1": "1 29486U 06042A   25338.55069492  .00000088  00000+0  00000+0 0  9996",
        "tle_line2": "2 29486  54.6929 159.0658 0107357  51.7626 309.8697  2.00554363140498"
      },
      "geometry": {
        "type": "Point",
        "coordinates": [
          -12.017158860018325,
          -12.431987684692013
        ]
      }
    },
    {
      "type": "Feature",
      "properties": {
        "norad_id": 29601,
        "name": "GPS BIIRM-3 (PRN 12)",
        "group": "gnss",
        "lat": -51.14111900350478,
        "lon": 102.09343632357546,
        "alt_km": 20410.95860531183,
        "timestamp": "2025-12-06T07:31:40.479008+00:00",
        "meta_object_name": "GPS BIIRM-3 (PRN 12)",
        "meta_object_id": "2006-052A",
        "meta_epoch": "2025-12-04T23:15:57.837888",
        "meta_mean_motion": 2.00572904,
        "meta_eccentricity": 0.00875961,
        "meta_inclination": 54.9722,
        "meta_ra_of_asc_node": 221.7066,
        "meta_arg_of_pericenter": 87.3581,
        "meta_mean_anomaly": 273.7369,
        "meta_ephemeris_type": 0,
        "meta_classification_type": "U",
        "meta_norad_cat_id": 29601,
        "meta_element_set_no": 999,
        "meta_rev_at_epoch": 13951,
        "meta_bstar": 0,
        "meta_mean_motion_dot": 5.8e-07,
        "meta_mean_motion_ddot": 0,
        "tle_line1": "1 29601U 06052A   25338.96941942  .00000058  00000+0  00000+0 0  9997",
        "tle_line2": "2 29601  54.9722 221.7066 0087596  87.3581 273.7369  2.00572904139515"
      },
      "geometry": {
        "type": "Point",
        "coordinates": [
          102.09343632357546,
          -51.14111900350478
        ]
      }
    },
    {
      "type": "Feature",
      "properties": {
        "norad_id": 32260,
        "name": "GPS BIIRM-4 (PRN 15)",
        "group": "gnss",
        "lat": 24.16656992436559,
        "lon": 107.06828599634989,
        "alt_km": 19922.74552159812,
        "timestamp": "2025-12-06T07:31:40.479020+00:00",
        "meta_object_name": "GPS BIIRM-4 (PRN 15)",
        "meta_object_id": "2007-047A",
        "meta_epoch": "2025-12-05T06:35:49.168896",
        "meta_mean_motion": 2.0056471,
        "meta_eccentricity": 0.01643532,
        "meta_inclination": 53.9502,
        "meta_ra_of_asc_node": 88.0669,
        "meta_arg_of_pericenter": 85.1619,
        "meta_mean_anomaly": 276.6895,
        "meta_ephemeris_type": 0,
        "meta_classification_type": "U",
        "meta_norad_cat_id": 32260,
        "meta_element_set_no": 999,
        "meta_rev_at_epoch": 13292,
        "meta_bstar": 0,
        "meta_mean_motion_dot": -2.6e-07,
        "meta_mean_motion_ddot": 0,
        "tle_line1": "1 32260U 07047A   25339.27487464 -.00000026  00000+0  00000+0 0  9992",
        "tle_line2": "2 32260  53.9502  88.0669 0164353  85.1619 276.6895  2.00564710132923"
      },
      "geometry": {
        "type": "Point",
        "coordinates": [
          107.06828599634989,
          24.16656992436559
        ]
      }
    },
    {
      "type": "Feature",
      "properties": {
        "norad_id": 32275,
        "name": "COSMOS 2433 (720)",
        "group": "gnss",
        "lat": -19.810586031596497,
        "lon": 151.7832967507441,
        "alt_km": 19123.923131199186,
        "timestamp": "2025-12-06T07:31:40.479032+00:00",
        "meta_object_name": "COSMOS 2433 (720)",
        "meta_object_id": "2007-052A",
        "meta_epoch": "2025-12-05T02:41:16.124352",
        "meta_mean_motion": 2.13103909,
        "meta_eccentricity": 0.00055104,
        "meta_inclination": 65.6874,
        "meta_ra_of_asc_node": 322.462,
        "meta_arg_of_pericenter": 252.9111,
        "meta_mean_anomaly": 107.0273,
        "meta_ephemeris_type": 0,
        "meta_classification_type": "U",
        "meta_norad_cat_id": 32275,
        "meta_element_set_no": 999,
        "meta_rev_at_epoch": 14092,
        "meta_bstar": 0,
        "meta_mean_motion_dot": -4.7e-07,
        "meta_mean_motion_ddot": 0,
        "tle_line1": "1 32275U 07052A   25339.11199218 -.00000047  00000+0  00000+0 0  9997",
        "tle_line2": "2 32275  65.6874 322.4620 0005510 252.9111 107.0273  2.13103909140922"
      },
      "geometry": {
        "type": "Point",
        "coordinates": [
          151.7832967507441,
          -19.810586031596497
        ]
      }
    },
    {
      "type": "Feature",
      "properties": {
        "norad_id": 32276,
        "name": "COSMOS 2432 (719)",
        "group": "gnss",
        "lat": 30.344995804923965,
        "lon": 127.19905970064177,
        "alt_km": 19154.179454334877,
        "timestamp": "2025-12-06T07:31:40.479048+00:00",
        "meta_object_name": "COSMOS 2432 (719)",
        "meta_object_id": "2007-052B",
        "meta_epoch": "2025-12-04T17:08:15.006912",
        "meta_mean_motion": 2.13103047,
        "meta_eccentricity": 0.00112577,
        "meta_inclination": 65.7035,
        "meta_ra_of_asc_node": 322.5994,
        "meta_arg_of_pericenter": 311.684,
        "meta_mean_anomaly": 47.4656,
        "meta_ephemeris_type": 0,
        "meta_classification_type": "U",
        "meta_norad_cat_id": 32276,
        "meta_element_set_no": 999,
        "meta_rev_at_epoch": 14093,
        "meta_bstar": 0,
        "meta_mean_motion_dot": -4.6e-07,
        "meta_mean_motion_ddot": 0,
        "tle_line1": "1 32276U 07052B   25338.71406258 -.00000046  00000+0  00000+0 0  9997",
        "tle_line2": "2 32276  65.7035 322.5994 0011257 311.6840  47.4656  2.13103047140931"
      },
      "geometry": {
        "type": "Point",
        "coordinates": [
          127.19905970064177,
          30.344995804923965
        ]
      }
    },
    {
      "type": "Feature",
      "properties": {
        "norad_id": 32384,
        "name": "GPS BIIRM-5 (PRN 29)",
        "group": "gnss",
        "lat": 15.579119753426424,
        "lon": 90.7122027658319,
        "alt_km": 20093.653753746865,
        "timestamp": "2025-12-06T07:31:40.479061+00:00",
        "meta_object_name": "GPS BIIRM-5 (PRN 29)",
        "meta_object_id": "2007-062A",
        "meta_epoch": "2025-12-05T07:59:29.428800",
        "meta_mean_motion": 2.00576795,
        "meta_eccentricity": 0.00322138,
        "meta_inclination": 55.1888,
        "meta_ra_of_asc_node": 281.943,
        "meta_arg_of_pericenter": 162.7364,
        "meta_mean_anomaly": 9.9869,
        "meta_ephemeris_type": 0,
        "meta_classification_type": "U",
        "meta_norad_cat_id": 32384,
        "meta_element_set_no": 999,
        "meta_rev_at_epoch": 13162,
        "meta_bstar": 0,
        "meta_mean_motion_dot": -3.8e-07,
        "meta_mean_motion_ddot": 0,
        "tle_line1": "1 32384U 07062A   25339.33297950 -.00000038  00000+0  00000+0 0  9995",
        "tle_line2": "2 32384  55.1888 281.9430 0032213 162.7364   9.9869  2.00576795131629"
      },
      "geometry": {
        "type": "Point",
        "coordinates": [
          90.7122027658319,
          15.579119753426424
        ]
      }
    }
  ]
}